start=new Date('2022-12-09T00:00:00.000Z').valueOf();
sats=[{"NORAD_CAT_ID":"53294","OBJECT_TYPE":"PAYLOAD","LAUNCH_DATE":"2022-07-24","EPHEMERIS_TYPE":"0","EPOCH":"2022-12-08T15:09:16.053984","PERIAPSIS":"538.607","MEAN_ANOMALY":"304.6082","MEAN_ELEMENT_THEORY":"SGP4","PERIOD":"95.438","RA_OF_ASC_NODE":"103.0205","COUNTRY_CODE":"US","SEMIMAJOR_AXIS":"6917.879","INCLINATION":"53.2196","CENTER_NAME":"EARTH","GP_ID":"219812198","MEAN_MOTION_DOT":"0.00000131","REF_FRAME":"TEME","MEAN_MOTION_DDOT":"0.0000000000000","OBJECT_ID":"2022-086BE","SITE":"AFETR","FILE":"3684925","OBJECT_NAME":"STARLINK-4146","ELEMENT_SET_NO":"999","ECCENTRICITY":"0.00016440","DECAY_DATE":null,"CLASSIFICATION_TYPE":"U","MEAN_MOTION":"15.08840294","REV_AT_EPOCH":"2216","TLE_LINE1":"1 53294U 22086BE  22342.63143581  .00000131  00000-0  26305-4 0  9990","RCS_SIZE":"LARGE","TLE_LINE2":"2 53294  53.2196 103.0205 0001644  55.5065 304.6082 15.08840294 22168","BSTAR":"0.00002630500000","TIME_SYSTEM":"UTC","APOAPSIS":"540.882","ARG_OF_PERICENTER":"55.5065"},{"ELEMENT_SET_NO":"999","ECCENTRICITY":"0.00025210","OBJECT_NAME":"STARLINK-4522","FILE":"3684925","SITE":"AFETR","OBJECT_ID":"2022-097A","MEAN_MOTION_DDOT":"0.0000000000000","APOAPSIS":"541.483","ARG_OF_PERICENTER":"30.7579","TIME_SYSTEM":"UTC","BSTAR":"0.00008873500000","TLE_LINE2":"2 53388  53.2188  53.9226 0002521  30.7579 329.3561 15.08842098 19615","RCS_SIZE":"LARGE","TLE_LINE1":"1 53388U 22097A   22342.43636077  .00001124  00000-0  88735-4 0  9999","REV_AT_EPOCH":"1961","DECAY_DATE":null,"CLASSIFICATION_TYPE":"U","MEAN_MOTION":"15.08842098","CENTER_NAME":"EARTH","SEMIMAJOR_AXIS":"6917.874","COUNTRY_CODE":"US","INCLINATION":"53.2188","MEAN_ELEMENT_THEORY":"SGP4","RA_OF_ASC_NODE":"53.9226","PERIOD":"95.437","MEAN_ANOMALY":"329.3561","PERIAPSIS":"537.995","EPOCH":"2022-12-08T10:28:21.570528","LAUNCH_DATE":"2022-08-10","EPHEMERIS_TYPE":"0","OBJECT_TYPE":"PAYLOAD","NORAD_CAT_ID":"53388","REF_FRAME":"TEME","MEAN_MOTION_DOT":"0.00001124","GP_ID":"219812205"},{"MEAN_MOTION_DDOT":"0.0000000000000","OBJECT_ID":"2022-097B","SITE":"AFETR","FILE":"3684925","OBJECT_NAME":"STARLINK-4523","ELEMENT_SET_NO":"999","ECCENTRICITY":"0.00023300","DECAY_DATE":null,"MEAN_MOTION":"15.08838788","CLASSIFICATION_TYPE":"U","REV_AT_EPOCH":"1946","TLE_LINE1":"1 53389U 22097B   22342.62773254  .00001265  00000-0  97558-4 0  9999","RCS_SIZE":"LARGE","TLE_LINE2":"2 53389  53.2190  53.0617 0002330  32.5643 327.5493 15.08838788 19462","BSTAR":"0.00009755800000","TIME_SYSTEM":"UTC","APOAPSIS":"541.361","ARG_OF_PERICENTER":"32.5643","NORAD_CAT_ID":"53389","OBJECT_TYPE":"PAYLOAD","LAUNCH_DATE":"2022-08-10","EPHEMERIS_TYPE":"0","PERIAPSIS":"538.137","MEAN_ANOMALY":"327.5493","EPOCH":"2022-12-08T15:03:56.091456","MEAN_ELEMENT_THEORY":"SGP4","PERIOD":"95.438","RA_OF_ASC_NODE":"53.0617","SEMIMAJOR_AXIS":"6917.884","COUNTRY_CODE":"US","INCLINATION":"53.2190","CENTER_NAME":"EARTH","GP_ID":"219811608","MEAN_MOTION_DOT":"0.00001265","REF_FRAME":"TEME"},{"PERIAPSIS":"538.094","EPOCH":"2022-12-08T10:23:04.085088","MEAN_ANOMALY":"332.1203","EPHEMERIS_TYPE":"0","LAUNCH_DATE":"2022-08-10","OBJECT_TYPE":"PAYLOAD","NORAD_CAT_ID":"53390","CENTER_NAME":"EARTH","INCLINATION":"53.2173","COUNTRY_CODE":"US","SEMIMAJOR_AXIS":"6917.876","RA_OF_ASC_NODE":"53.9407","PERIOD":"95.437","MEAN_ELEMENT_THEORY":"SGP4","GP_ID":"219811200","REF_FRAME":"TEME","MEAN_MOTION_DOT":"0.00002244","SITE":"AFETR","OBJECT_ID":"2022-097C","MEAN_MOTION_DDOT":"0.0000000000000","ECCENTRICITY":"0.00023800","ELEMENT_SET_NO":"999","OBJECT_NAME":"STARLINK-4517","FILE":"3684925","TLE_LINE1":"1 53390U 22097C   22342.43268617  .00002244  00000-0  15903-3 0  9993","REV_AT_EPOCH":"1958","DECAY_DATE":null,"CLASSIFICATION_TYPE":"U","MEAN_MOTION":"15.08841572","ARG_OF_PERICENTER":"27.9916","APOAPSIS":"541.387","TIME_SYSTEM":"UTC","BSTAR":"0.00015903000000","RCS_SIZE":"LARGE","TLE_LINE2":"2 53390  53.2173  53.9407 0002380  27.9916 332.1203 15.08841572 19586"},{"PERIAPSIS":"537.992","EPOCH":"2022-12-08T11:47:49.997760","MEAN_ANOMALY":"323.1413","OBJECT_TYPE":"PAYLOAD","NORAD_CAT_ID":"53391","EPHEMERIS_TYPE":"0","LAUNCH_DATE":"2022-08-10","CENTER_NAME":"EARTH","RA_OF_ASC_NODE":"53.6791","PERIOD":"95.437","MEAN_ELEMENT_THEORY":"SGP4","INCLINATION":"53.2190","COUNTRY_CODE":"US","SEMIMAJOR_AXIS":"6917.839","GP_ID":"219785484","REF_FRAME":"TEME","MEAN_MOTION_DOT":"0.00002911","SITE":"AFETR","MEAN_MOTION_DDOT":"0.0000000000000","OBJECT_ID":"2022-097D","OBJECT_NAME":"STARLINK-4521","ECCENTRICITY":"0.00024750","ELEMENT_SET_NO":"999","FILE":"3684880","TLE_LINE1":"1 53391U 22097D   22342.49155090  .00002911  00000-0  20087-3 0  9990","CLASSIFICATION_TYPE":"U","DECAY_DATE":null,"MEAN_MOTION":"15.08853429","REV_AT_EPOCH":"1879","TIME_SYSTEM":"UTC","ARG_OF_PERICENTER":"36.9750","APOAPSIS":"541.417","RCS_SIZE":"LARGE","TLE_LINE2":"2 53391  53.2190  53.6791 0002475  36.9750 323.1413 15.08853429 18799","BSTAR":"0.00020087000000"},{"OBJECT_ID":"2022-097E","MEAN_MOTION_DDOT":"0.0000000000000","SITE":"AFETR","FILE":"3684880","ECCENTRICITY":"0.00028660","ELEMENT_SET_NO":"999","OBJECT_NAME":"STARLINK-4535","REV_AT_EPOCH":"1879","CLASSIFICATION_TYPE":"U","DECAY_DATE":null,"MEAN_MOTION":"15.08857103","TLE_LINE1":"1 53392U 22097E   22342.48418833  .00000839  00000-0  70815-4 0  9999","BSTAR":"0.00007081500000","TLE_LINE2":"2 53392  53.2200  53.7094 0002866  37.4244 322.6947 15.08857103 18796","RCS_SIZE":"LARGE","ARG_OF_PERICENTER":"37.4244","APOAPSIS":"541.676","TIME_SYSTEM":"UTC","EPHEMERIS_TYPE":"0","LAUNCH_DATE":"2022-08-10","OBJECT_TYPE":"PAYLOAD","NORAD_CAT_ID":"53392","EPOCH":"2022-12-08T11:37:13.871712","PERIAPSIS":"537.710","MEAN_ANOMALY":"322.6947","INCLINATION":"53.2200","SEMIMAJOR_AXIS":"6917.828","COUNTRY_CODE":"US","PERIOD":"95.436","RA_OF_ASC_NODE":"53.7094","MEAN_ELEMENT_THEORY":"SGP4","CENTER_NAME":"EARTH","GP_ID":"219785321","MEAN_MOTION_DOT":"0.00000839","REF_FRAME":"TEME"},{"GP_ID":"219812002","REF_FRAME":"TEME","MEAN_MOTION_DOT":"0.00010680","EPOCH":"2022-12-08T14:53:20.113152","PERIAPSIS":"537.825","MEAN_ANOMALY":"332.6985","LAUNCH_DATE":"2022-08-10","EPHEMERIS_TYPE":"0","OBJECT_TYPE":"PAYLOAD","NORAD_CAT_ID":"53393","CENTER_NAME":"EARTH","SEMIMAJOR_AXIS":"6917.844","COUNTRY_CODE":"US","INCLINATION":"53.2184","MEAN_ELEMENT_THEORY":"SGP4","RA_OF_ASC_NODE":"53.0933","PERIOD":"95.437","TLE_LINE1":"1 53393U 22097F   22342.62037168  .00010680  00000-0  68786-3 0  9992","REV_AT_EPOCH":"1946","MEAN_MOTION":"15.08851985","DECAY_DATE":null,"CLASSIFICATION_TYPE":"U","APOAPSIS":"541.592","ARG_OF_PERICENTER":"27.4150","TIME_SYSTEM":"UTC","BSTAR":"0.00068786000000","RCS_SIZE":"LARGE","TLE_LINE2":"2 53393  53.2184  53.0933 0002723  27.4150 332.6985 15.08851985 19460","SITE":"AFETR","OBJECT_ID":"2022-097F","MEAN_MOTION_DDOT":"0.0000000000000","ELEMENT_SET_NO":"999","ECCENTRICITY":"0.00027230","OBJECT_NAME":"STARLINK-4530","FILE":"3684925"},{"OBJECT_NAME":"STARLINK-4544","ELEMENT_SET_NO":"999","ECCENTRICITY":"0.00021190","FILE":"3684925","SITE":"AFETR","MEAN_MOTION_DDOT":"0.0000000000000","OBJECT_ID":"2022-097G","TIME_SYSTEM":"UTC","APOAPSIS":"541.233","ARG_OF_PERICENTER":"23.5776","TLE_LINE2":"2 53394  53.2195  42.7341 0002119  23.5776 336.5313 15.08833057 19616","RCS_SIZE":"LARGE","BSTAR":"-0.00050925000000","TLE_LINE1":"1 53394U 22097G   22342.64799063 -.00008382  00000-0 -50925-3 0  9998","MEAN_MOTION":"15.08833057","DECAY_DATE":null,"CLASSIFICATION_TYPE":"U","REV_AT_EPOCH":"1961","CENTER_NAME":"EARTH","MEAN_ELEMENT_THEORY":"SGP4","RA_OF_ASC_NODE":"42.7341","PERIOD":"95.438","COUNTRY_CODE":"US","SEMIMAJOR_AXIS":"6917.902","INCLINATION":"53.2195","PERIAPSIS":"538.301","EPOCH":"2022-12-08T15:33:06.390432","MEAN_ANOMALY":"336.5313","NORAD_CAT_ID":"53394","OBJECT_TYPE":"PAYLOAD","LAUNCH_DATE":"2022-08-10","EPHEMERIS_TYPE":"0","REF_FRAME":"TEME","MEAN_MOTION_DOT":"-0.00008382","GP_ID":"219810780"},{"CENTER_NAME":"EARTH","PERIOD":"95.438","RA_OF_ASC_NODE":"52.8339","MEAN_ELEMENT_THEORY":"SGP4","INCLINATION":"53.2195","SEMIMAJOR_AXIS":"6917.919","COUNTRY_CODE":"US","EPOCH":"2022-12-08T16:18:07.499808","PERIAPSIS":"538.097","MEAN_ANOMALY":"338.2495","NORAD_CAT_ID":"53395","OBJECT_TYPE":"PAYLOAD","EPHEMERIS_TYPE":"0","LAUNCH_DATE":"2022-08-10","REF_FRAME":"TEME","MEAN_MOTION_DOT":"0.00001287","GP_ID":"219810984","OBJECT_NAME":"STARLINK-4534","ECCENTRICITY":"0.00024390","ELEMENT_SET_NO":"999","FILE":"3684925","SITE":"AFETR","MEAN_MOTION_DDOT":"0.0000000000000","OBJECT_ID":"2022-097H","TIME_SYSTEM":"UTC","ARG_OF_PERICENTER":"21.8601","APOAPSIS":"541.471","TLE_LINE2":"2 53395  53.2195  52.8339 0002439  21.8601 338.2495 15.08827393 19312","RCS_SIZE":"LARGE","BSTAR":"0.00009900900000","TLE_LINE1":"1 53395U 22097H   22342.67925347  .00001287  00000-0  99009-4 0  9990","DECAY_DATE":null,"CLASSIFICATION_TYPE":"U","MEAN_MOTION":"15.08827393","REV_AT_EPOCH":"1931"},{"GP_ID":"219785314","REF_FRAME":"TEME","MEAN_MOTION_DOT":"0.00005405","PERIAPSIS":"538.155","EPOCH":"2022-12-08T11:10:45.458688","MEAN_ANOMALY":"335.2625","EPHEMERIS_TYPE":"0","LAUNCH_DATE":"2022-08-10","NORAD_CAT_ID":"53396","OBJECT_TYPE":"PAYLOAD","CENTER_NAME":"EARTH","INCLINATION":"53.2211","SEMIMAJOR_AXIS":"6917.848","COUNTRY_CODE":"US","RA_OF_ASC_NODE":"53.7787","PERIOD":"95.437","MEAN_ELEMENT_THEORY":"SGP4","TLE_LINE1":"1 53396U 22097J   22342.46580392  .00005405  00000-0  35735-3 0  9996","REV_AT_EPOCH":"1879","DECAY_DATE":null,"CLASSIFICATION_TYPE":"U","MEAN_MOTION":"15.08850486","ARG_OF_PERICENTER":"24.8476","APOAPSIS":"541.271","TIME_SYSTEM":"UTC","BSTAR":"0.00035735000000","TLE_LINE2":"2 53396  53.2211  53.7787 0002252  24.8476 335.2625 15.08850486 18797","RCS_SIZE":"LARGE","SITE":"AFETR","OBJECT_ID":"2022-097J","MEAN_MOTION_DDOT":"0.0000000000000","ECCENTRICITY":"0.00022520","ELEMENT_SET_NO":"999","OBJECT_NAME":"STARLINK-4524","FILE":"3684880"}];
